[{"OBJECT_NAME":"TIANMU-1 19","OBJECT_ID":"2023-208A","EPOCH":"2026-03-09T22:13:36.801696","MEAN_MOTION":15.2984143,"ECCENTRICITY":0.00039292,"INCLINATION":97.4383,"RA_OF_ASC_NODE":184.9132,"ARG_OF_PERICENTER":316.2611,"MEAN_ANOMALY":43.8317,"EPHEMERIS_TYPE":0,"CLASSIFICATION_TYPE":"U","NORAD_CAT_ID":58660,"ELEMENT_SET_NO":999,"REV_AT_EPOCH":12214,"BSTAR":0.00040995676,"MEAN_MOTION_DOT":0.00011779,"MEAN_MOTION_DDOT":0},{"OBJECT_NAME":"STARLINK-32504","OBJECT_ID":"2024-213S","EPOCH":"2026-03-09T12:59:39.167520","MEAN_MOTION":15.30210574,"ECCENTRICITY":0.00033513,"INCLINATION":53.1596,"RA_OF_ASC_NODE":168.7092,"ARG_OF_PERICENTER":170.7831,"MEAN_ANOMALY":189.3232,"EPHEMERIS_TYPE":0,"CLASSIFICATION_TYPE":"U","NORAD_CAT_ID":62024,"ELEMENT_SET_NO":999,"REV_AT_EPOCH":7313,"BSTAR":0.00086230332,"MEAN_MOTION_DOT":0.00025277,"MEAN_MOTION_DDOT":0}]
